GLOBALSTAR M024         
1 25883U 99043A   25206.46902326 -.00000094  00000+0 -10320-2 0  9990
2 25883  52.0026 294.2489 0001844 160.3934 284.3040 11.10165088119119
GLOBALSTAR M027         
1 25884U 99043B   25206.42079858 -.00000100  00000+0 -13757-2 0  9997
2 25884  52.0242  13.4194 0022017  54.5071 305.7772 11.04371864145466
GLOBALSTAR M054         
1 25885U 99043C   25206.81386285 -.00000081  00000+0 -24838-3 0  9997
2 25885  52.0131 133.3610 0005150 244.9973 147.7723 11.39224931123459
GLOBALSTAR M053         
1 25886U 99043D   25206.39290748 -.00000049  00000+0  58290-3 0  9991
2 25886  51.9988  83.5840 0003248 132.6735  38.4378 11.27665965123752
GLOBALSTAR M058         
1 25907U 99049A   25206.75955122 -.00000068  00000+0  21727-3 0  9991
2 25907  51.9965   6.1766 0001998   4.2051 355.8800 11.93201070546148
GLOBALSTAR M050         
1 25908U 99049B   25206.45120317 -.00000044  00000+0  50418-3 0  9992
2 25908  52.0012  11.8167 0009963 106.6940 279.6367 12.07456103152819
GLOBALSTAR M033         
1 25909U 99049C   25206.35599985 -.00000094  00000+0 -23811-4 0  9997
2 25909  51.9893 241.2751 0013477 340.8961  19.1379 12.20294820540400
GLOBALSTAR M055         
1 25910U 99049D   25206.46805118 -.00000052  00000+0  36348-3 0  9990
2 25910  52.0000 249.8446 0007231 210.0882 149.9555 12.29430366172999
